CCSDS_OMM_VERS = 2.0
CREATION_DATE  = 
ORIGINATOR     = 

OBJECT_NAME    = ATLAS CENTAUR R/B
OBJECT_ID      = 1972-065B
CENTER_NAME    = EARTH
REF_FRAME      = TEME
TIME_SYSTEM    = UTC
MEAN_ELEMENT_THEORY = SGP/SGP4

EPOCH          = 2026-02-11T04:57:43.183584
MEAN_MOTION    = 14.77608486
ECCENTRICITY   = .00333369
INCLINATION    = 35.0012
RA_OF_ASC_NODE = 100.9417
ARG_OF_PERICENTER = 148.1796
MEAN_ANOMALY   = 212.0927

EPHEMERIS_TYPE = 0
CLASSIFICATION_TYPE = U
NORAD_CAT_ID   = 6155
ELEMENT_SET_NO = 999
REV_AT_EPOCH   = 83734
BSTAR          = .19575582E-3
MEAN_MOTION_DOT = .1412E-4
MEAN_MOTION_DDOT = 0

CCSDS_OMM_VERS = 2.0
CREATION_DATE  = 
ORIGINATOR     = 

OBJECT_NAME    = SL-8 R/B
OBJECT_ID      = 1975-112B
CENTER_NAME    = EARTH
REF_FRAME      = TEME
TIME_SYSTEM    = UTC
MEAN_ELEMENT_THEORY = SGP/SGP4

EPOCH          = 2026-02-11T01:41:22.362144
MEAN_MOTION    = 14.38190113
ECCENTRICITY   = .00153218
INCLINATION    = 74.0590
RA_OF_ASC_NODE = 67.8823
ARG_OF_PERICENTER = 170.6740
MEAN_ANOMALY   = 189.4702

EPHEMERIS_TYPE = 0
CLASSIFICATION_TYPE = U
NORAD_CAT_ID   = 8459
ELEMENT_SET_NO = 999
REV_AT_EPOCH   = 62804
BSTAR          = .69863558E-4
MEAN_MOTION_DOT = .186E-5
MEAN_MOTION_DDOT = 0

CCSDS_OMM_VERS = 2.0
CREATION_DATE  = 
ORIGINATOR     = 

OBJECT_NAME    = SL-3 R/B
OBJECT_ID      = 1977-057B
CENTER_NAME    = EARTH
REF_FRAME      = TEME
TIME_SYSTEM    = UTC
MEAN_ELEMENT_THEORY = SGP/SGP4

EPOCH          = 2026-02-11T05:32:19.141440
MEAN_MOTION    = 15.44720457
ECCENTRICITY   = .00078677
INCLINATION    = 97.5735
RA_OF_ASC_NODE = 213.0093
ARG_OF_PERICENTER = 26.6442
MEAN_ANOMALY   = 333.5209

EPHEMERIS_TYPE = 0
CLASSIFICATION_TYPE = U
NORAD_CAT_ID   = 10114
ELEMENT_SET_NO = 999
REV_AT_EPOCH   = 66424
BSTAR          = .3251889E-3
MEAN_MOTION_DOT = .1512E-3
MEAN_MOTION_DDOT = 0

CCSDS_OMM_VERS = 2.0
CREATION_DATE  = 
ORIGINATOR     = 

OBJECT_NAME    = SEASAT 1
OBJECT_ID      = 1978-064A
CENTER_NAME    = EARTH
REF_FRAME      = TEME
TIME_SYSTEM    = UTC
MEAN_ELEMENT_THEORY = SGP/SGP4

EPOCH          = 2026-02-10T22:24:38.815776
MEAN_MOTION    = 14.46138447
ECCENTRICITY   = .00016158
INCLINATION    = 108.0161
RA_OF_ASC_NODE = 69.3490
ARG_OF_PERICENTER = 291.6024
MEAN_ANOMALY   = 68.4950

EPHEMERIS_TYPE = 0
CLASSIFICATION_TYPE = U
NORAD_CAT_ID   = 10967
ELEMENT_SET_NO = 999
REV_AT_EPOCH   = 50264
BSTAR          = .12118745E-3
MEAN_MOTION_DOT = .296E-5
MEAN_MOTION_DDOT = 0

CCSDS_OMM_VERS = 2.0
CREATION_DATE  = 
ORIGINATOR     = 

OBJECT_NAME    = SL-14 R/B
OBJECT_ID      = 1979-011B
CENTER_NAME    = EARTH
REF_FRAME      = TEME
TIME_SYSTEM    = UTC
MEAN_ELEMENT_THEORY = SGP/SGP4

EPOCH          = 2026-02-11T05:19:12.984384
MEAN_MOTION    = 14.91875980
ECCENTRICITY   = .00170557
INCLINATION    = 82.5250
RA_OF_ASC_NODE = 121.6854
ARG_OF_PERICENTER = 141.8979
MEAN_ANOMALY   = 218.3451

EPHEMERIS_TYPE = 0
CLASSIFICATION_TYPE = U
NORAD_CAT_ID   = 11267
ELEMENT_SET_NO = 999
REV_AT_EPOCH   = 52483
BSTAR          = .63677474E-4
MEAN_MOTION_DOT = .671E-5
MEAN_MOTION_DDOT = 0

CCSDS_OMM_VERS = 2.0
CREATION_DATE  = 
ORIGINATOR     = 

OBJECT_NAME    = SL-8 R/B
OBJECT_ID      = 1979-089B
CENTER_NAME    = EARTH
REF_FRAME      = TEME
TIME_SYSTEM    = UTC
MEAN_ELEMENT_THEORY = SGP/SGP4

EPOCH          = 2026-02-10T18:20:57.316128
MEAN_MOTION    = 14.42333989
ECCENTRICITY   = .00166501
INCLINATION    = 74.0698
RA_OF_ASC_NODE = 140.8839
ARG_OF_PERICENTER = 316.8580
MEAN_ANOMALY   = 43.1270

EPHEMERIS_TYPE = 0
CLASSIFICATION_TYPE = U
NORAD_CAT_ID   = 11574
ELEMENT_SET_NO = 999
REV_AT_EPOCH   = 43222
BSTAR          = .10286714E-3
MEAN_MOTION_DOT = .314E-5
MEAN_MOTION_DDOT = 0

CCSDS_OMM_VERS = 2.0
CREATION_DATE  = 
ORIGINATOR     = 

OBJECT_NAME    = SL-14 R/B
OBJECT_ID      = 1980-005B
CENTER_NAME    = EARTH
REF_FRAME      = TEME
TIME_SYSTEM    = UTC
MEAN_ELEMENT_THEORY = SGP/SGP4

EPOCH          = 2026-02-11T05:12:55.753344
MEAN_MOTION    = 14.90895801
ECCENTRICITY   = .00141691
INCLINATION    = 82.5175
RA_OF_ASC_NODE = 332.3397
ARG_OF_PERICENTER = 250.1778
MEAN_ANOMALY   = 109.7914

EPHEMERIS_TYPE = 0
CLASSIFICATION_TYPE = U
NORAD_CAT_ID   = 11672
ELEMENT_SET_NO = 999
REV_AT_EPOCH   = 47254
BSTAR          = .76958326E-4
MEAN_MOTION_DOT = .785E-5
MEAN_MOTION_DDOT = 0

CCSDS_OMM_VERS = 2.0
CREATION_DATE  = 
ORIGINATOR     = 

OBJECT_NAME    = SL-8 R/B
OBJECT_ID      = 1981-003B
CENTER_NAME    = EARTH
REF_FRAME      = TEME
TIME_SYSTEM    = UTC
MEAN_ELEMENT_THEORY = SGP/SGP4

EPOCH          = 2026-02-10T20:07:41.156256
MEAN_MOTION    = 15.09997678
ECCENTRICITY   = .02629867
INCLINATION    = 82.9392
RA_OF_ASC_NODE = 314.8320
ARG_OF_PERICENTER = 272.3754
MEAN_ANOMALY   = 84.7392

EPHEMERIS_TYPE = 0
CLASSIFICATION_TYPE = U
NORAD_CAT_ID   = 12139
ELEMENT_SET_NO = 999
REV_AT_EPOCH   = 31062
BSTAR          = .45050366E-3
MEAN_MOTION_DOT = .17012E-3
MEAN_MOTION_DDOT = 0

CCSDS_OMM_VERS = 2.0
CREATION_DATE  = 
ORIGINATOR     = 

OBJECT_NAME    = SL-3 R/B
OBJECT_ID      = 1981-046B
CENTER_NAME    = EARTH
REF_FRAME      = TEME
TIME_SYSTEM    = UTC
MEAN_ELEMENT_THEORY = SGP/SGP4

EPOCH          = 2026-02-11T05:41:33.829440
MEAN_MOTION    = 15.41250884
ECCENTRICITY   = .00207714
INCLINATION    = 81.2340
RA_OF_ASC_NODE = 321.4835
ARG_OF_PERICENTER = 109.0452
MEAN_ANOMALY   = 251.3043

EPHEMERIS_TYPE = 0
CLASSIFICATION_TYPE = U
NORAD_CAT_ID   = 12465
ELEMENT_SET_NO = 999
REV_AT_EPOCH   = 43435
BSTAR          = .36202337E-3
MEAN_MOTION_DOT = .15206E-3
MEAN_MOTION_DDOT = 0

CCSDS_OMM_VERS = 2.0
CREATION_DATE  = 
ORIGINATOR     = 

OBJECT_NAME    = SL-3 R/B
OBJECT_ID      = 1981-103B
CENTER_NAME    = EARTH
REF_FRAME      = TEME
TIME_SYSTEM    = UTC
MEAN_ELEMENT_THEORY = SGP/SGP4

EPOCH          = 2026-02-11T04:45:11.063808
MEAN_MOTION    = 15.21050874
ECCENTRICITY   = .00136509
INCLINATION    = 81.1563
RA_OF_ASC_NODE = 244.5064
ARG_OF_PERICENTER = 18.5831
MEAN_ANOMALY   = 341.5896

EPHEMERIS_TYPE = 0
CLASSIFICATION_TYPE = U
NORAD_CAT_ID   = 12904
ELEMENT_SET_NO = 999
REV_AT_EPOCH   = 96920
BSTAR          = .243941E-3
MEAN_MOTION_DOT = .5454E-4
MEAN_MOTION_DDOT = 0

CCSDS_OMM_VERS = 2.0
CREATION_DATE  = 
ORIGINATOR     = 

OBJECT_NAME    = SL-3 R/B
OBJECT_ID      = 1982-013B
CENTER_NAME    = EARTH
REF_FRAME      = TEME
TIME_SYSTEM    = UTC
MEAN_ELEMENT_THEORY = SGP/SGP4

EPOCH          = 2026-02-11T05:13:11.370144
MEAN_MOTION    = 15.21720269
ECCENTRICITY   = .00217024
INCLINATION    = 81.1744
RA_OF_ASC_NODE = 191.7849
ARG_OF_PERICENTER = 269.0591
MEAN_ANOMALY   = 90.8154

EPHEMERIS_TYPE = 0
CLASSIFICATION_TYPE = U
NORAD_CAT_ID   = 13068
ELEMENT_SET_NO = 999
REV_AT_EPOCH   = 40032
BSTAR          = .27174777E-3
MEAN_MOTION_DOT = .6217E-4
MEAN_MOTION_DDOT = 0

CCSDS_OMM_VERS = 2.0
CREATION_DATE  = 
ORIGINATOR     = 

OBJECT_NAME    = SL-3 R/B
OBJECT_ID      = 1982-039B
CENTER_NAME    = EARTH
REF_FRAME      = TEME
TIME_SYSTEM    = UTC
MEAN_ELEMENT_THEORY = SGP/SGP4

EPOCH          = 2026-02-11T05:12:23.247936
MEAN_MOTION    = 15.09932292
ECCENTRICITY   = .00300715
INCLINATION    = 81.1609
RA_OF_ASC_NODE = 246.4763
ARG_OF_PERICENTER = 51.0183
MEAN_ANOMALY   = 309.3713

EPHEMERIS_TYPE = 0
CLASSIFICATION_TYPE = U
NORAD_CAT_ID   = 13154
ELEMENT_SET_NO = 999
REV_AT_EPOCH   = 37764
BSTAR          = .15684715E-3
MEAN_MOTION_DOT = .2593E-4
MEAN_MOTION_DDOT = 0

