ATLAS CENTAUR R/B       
1 06155U 72065B   26042.20674981  .00001412  00000+0  19576-3 0  9996
2 06155  35.0012 100.9417 0033336 148.1796 212.0927 14.77608486837345
SL-8 R/B                
1 08459U 75112B   26042.07039771  .00000186  00000+0  69864-4 0  9991
2 08459  74.0590  67.8823 0015321 170.6740 189.4702 14.38190113628046
SL-3 R/B                
1 10114U 77057B   26042.23077710  .00015120  00000+0  32519-3 0  9995
2 10114  97.5735 213.0093 0007867  26.6442 333.5209 15.44720457664241
SEASAT 1                
1 10967U 78064A   26041.93378259  .00000296  00000+0  12119-3 0  9990
2 10967 108.0161  69.3490 0001615 291.6024  68.4950 14.46138447502641
SL-14 R/B               
1 11267U 79011B   26042.22167806  .00000671  00000+0  63677-4 0  9997
2 11267  82.5250 121.6854 0017055 141.8979 218.3451 14.91875980524833
SL-8 R/B                
1 11574U 79089B   26041.76455227  .00000314  00000+0  10287-3 0  9990
2 11574  74.0698 140.8839 0016650 316.8580  43.1270 14.42333989432222
SL-14 R/B               
1 11672U 80005B   26042.21731196  .00000785  00000+0  76958-4 0  9992
2 11672  82.5175 332.3397 0014169 250.1778 109.7914 14.90895801472546
SL-8 R/B                
1 12139U 81003B   26041.83867079  .00017012  00000+0  45050-3 0  9996
2 12139  82.9392 314.8320 0262986 272.3754  84.7392 15.09997678310621
SL-3 R/B                
1 12465U 81046B   26042.23719710  .00015206  00000+0  36202-3 0  9990
2 12465  81.2340 321.4835 0020771 109.0452 251.3043 15.41250884434357
SL-3 R/B                
1 12904U 81103B   26042.19804472  .00005454  00000+0  24394-3 0  9990
2 12904  81.1563 244.5064 0013650  18.5831 341.5896 15.21050874969203
SL-3 R/B                
1 13068U 82013B   26042.21749271  .00006217  00000+0  27175-3 0  9999
2 13068  81.1744 191.7849 0021702 269.0591  90.8154 15.21720269400329
SL-3 R/B                
1 13154U 82039B   26042.21693574  .00002593  00000+0  15685-3 0  9993
2 13154  81.1609 246.4763 0030071  51.0183 309.3713 15.09932292377647
